Row #,Name,Street,City,State,Zip,Phone,Website,Latitude,Longitude,Monday_Start,Monday_End,Tuesday_Start,Tuesday_End,Wednesday_Start,Wednesday_End,Thursday_Start,Thursday_End,Friday_Start,Friday_End,Saturday_Start,Saturday_End,Sunday_Start,Sunday_End,Last Update,Menu,Item1,Item2,Item3,Item4,,,,,,,,,,,,,,,,,,,,,,,,,,,,,,,,,,,,,,,,
1,Duke's Waikiki,2335 Kalakaua Ave Ste 116,Honolulu,HI,96815,(808) 922-2268,https://www.dukeswaikiki.com/,21.27692,-157.8277,,,,,,,,,,,,,,,7/19/2022,https://www.dukeswaikiki.com/menus/,,,,,,,,,,,,,,,,,,,,,,,,,,,,,,,,,,,,,,,,,,,,
2,Moani Waikiki,2330 Kalakaua Ave Ste 312,Honolulu,HI,96815,(808) 466-2629,https://www.moaniwaikiki.com,21.27823,-157.82657,5:00 PM,6:30 PM,5:00 PM,6:30 PM,5:00 PM,6:30 PM,5:00 PM,6:30 PM,5:00 PM,6:30 PM,,,,,1/26/2022,,$10 Pupus,$8 Wine,$5 Drafts,$5 Wells,,,,,,,,,,,,,,,,,,,,,,,,,,,,,,,,,,,,,,,,
3,Basalt,2255 Kuhio Ave,Honolulu,HI,96815,(808) 923-5689,https://www.basaltwaikiki.com,21.27992,-157.82699,3:00 PM,5:00 PM,3:00 PM,5:00 PM,3:00 PM,5:00 PM,3:00 PM,5:00 PM,3:00 PM,5:00 PM,3:00 PM,5:00 PM,3:00 PM,5:00 PM,2/26/2022,https://www.basaltwaikiki.com/wp-content/uploads/happy-hour-menu-02-07-22.pdf,$5 Well Drinks,$3-6 Beers,$5 Wine,$10 Beef Fires,$16 Adobo Chicken Wings,$13 Duck Empanadas,$6 Baja Fish Taco ,$8 Bar Burger,$5 French Fires ,$6 Garlic Fries,$6 Togarashi Fries ,$7 Waffle Fries ,$7 Onion Rings ,,,,,,,,,,,,,,,,,,,,,,,,,,,,,,,
4,Hideout at The Laylow,2299 Kuhio Ave Fl 2,Honolulu,HI,96815,(808) 628-3060,http://www.hideoutwaikiki.com,21.27922,-157.82653,5:00 PM,6:00 PM,5:00 PM,6:00 PM,5:00 PM,6:00 PM,5:00 PM,6:00 PM,5:00 PM,6:00 PM,5:00 PM,6:00 PM,5:00 PM,6:00 PM,2/26/2022,https://www.hideoutwaikiki.com/menu/,"$12 Laylow ""Hawaiian Style"" Mai Tai ",$9 Spirits,$9 Beer,$8 Wine,$15 Mainlander Burger ,$10 Kalua Egg Rolls ,$10 Crispy Pork Belly ,MP - Wonton Poke Tacos,$10 Island Greens,,,,,,,,,,,,,,,,,,,,,,,,,,,,,,,,,,,
5,Sky Waikiki Raw & Bar,2270 Kalakaua Ave,Honolulu,HI,96815,(808) 979-7590,http://skywaikiki.com,21.27884,-157.82805,4:00 PM,5:00 PM,4:00 PM,5:00 PM,4:00 PM,5:00 PM,4:00 PM,5:00 PM,4:00 PM,5:00 PM,4:00 PM,5:00 PM,4:00 PM,5:00 PM,2/13/2022,http://www.skywaikiki.com/menu/,$4 Beers,$9 Icy Mai Tai,$9 Coconut Girl,$8 Frozen Bellini,$9/$35 Benaccetto Prosecco,$8/$30 House White Wine,$8/$30 House Red Wine,$8 Sangria,$2 Fresh Oyster,$9 Hawaiian Ahi Poke,$9 Spicy Ahi Poke ,$6 Shiso French Fires,$6 Truffle Honey Mascarpone,$7 Chicken Liver Pate,$9 Sweet Soy Pepper Wings,$10 Spicy Ahi Roll,$10 Spciy Scallop Roll,,,,,,,,,,,,,,,,,,,,,,,,,,,
6,Yard House,226 Lewers St,Honolulu,HI,96815,(808) 923-9273,https://www.yardhouse.com,21.27911901,-157.8315251,2:00 PM,5:30 PM,2:00 PM,5:30 PM,2:00 PM,5:30 PM,2:00 PM,5:30 PM,2:00 PM,5:30 PM,,,,,2/26/2022,https://www.yardhouse.com/happy-hour/hi/honolulu-restaurant/8316,"$2 Off Draft Beer, Wine, Spirits & Cocktails",$3 Off 9 oz Wine,$4 Off Half Yards,1/2 Off Select Apps & All Pizzas,,,,,,,,,,,,,,,,,,,,,,,,,,,,,,,,,,,,,,,,
7,Yard House,226 Lewers St,Honolulu,HI,96815,(808) 923-9273,https://www.yardhouse.com,21.27911901,-157.8315251,10:30 PM,11:59 PM,10:30 PM,11:59 PM,10:30 PM,11:59 PM,,,,,,,10:30 PM,11:59 PM,2/26/2022,https://www.yardhouse.com/happy-hour/hi/honolulu-restaurant/8316,"$2 Off Draft Beer, Wine, Spirits & Cocktails",$3 Off 9 oz Wine,$4 Off Half Yards,,,,,,,,,,,,,,,,,,,,,,,,,,,,,,,,,,,,,,,,,
8,Shorefyre,2446 Koa Ave,Honolulu,HI,96815,(808) 923-7007,http://www.shorefyre.com,21.27576,-157.82418,4:00 PM,6:00 PM,8:00 AM,11:59 PM,4:00 PM,6:00 PM,4:00 PM,6:00 PM,4:00 PM,6:00 PM,4:00 PM,6:00 PM,4:00 PM,6:00 PM,2/27/2022,https://www.shorefyre.com/menu/,$7 Maui Brewing Big Swell IPA,$4 PBR,$4 Modelo Especial,$6 Kona Big Wave Golden Ale,$7 House Wine & Sparkling,$9 Coconut Mojito,$9 Hawaiian Mai Tai,$7 Spirits,$10.50 Mauna Kea Nachos,$30 Make It A Sampler - Pick Any 4 (Excluding Nachos),$10 Hawaiian 'Pipikaula' Style Beef Jerky,$7.50 Grilled Baby Romaine,$9.50 Fresh Ahi Tuna Tataki,$9.50 Coconut Shrimp (5),$9.50 Hibachi Steak,$7.50 Hibachi Chicken ,$7.50 Fried Brussel Sprouts,$7.50 Loaded Cheese Fries,$10.50 Tropical Shrimp Ceviche,,,,,,,,,,,,,,,,,,,,,,,,,
9,Workplay,814 Ilaniwai St Fl 1 ,Honolulu,HI,96813,(808) 457-1322,https://workplayhi.com,21.29916,-157.85597,4:00 PM,6:00 PM,4:00 PM,6:00 PM,4:00 PM,6:00 PM,4:00 PM,6:00 PM,4:00 PM,6:00 PM,4:00 PM,6:00 PM,4:00 PM,6:00 PM,6/22/2022,https://workplayhi.com/in-house-menu,$18 Modelo & Coors Pitcher,$10 Classic Cocktails,$7 Glass Pour Wines,$15 Ceviche,$4 Queso,$9 Tacos (choose 3),,,,,,,,,,,,,,,,,,,,,,,,,,,,,,,,,,,,,,
10,The Surfing Pig Hawaii,3605 Waialae Ave,Honolulu,HI,96816,(808) 744-1992,https://thesurfingpighawaii.com/,21.28265,-157.79867,4:00 PM,6:00 PM,4:00 PM,6:00 PM,4:00 PM,6:00 PM,4:00 PM,6:00 PM,4:00 PM,6:00 PM,,,,,3/8/2022,https://thesurfingpighawaii.com/#dinner-menu,$11 Cocktails,$11 Wine,$15 Street Tacos,$14 Brisket Tacos,$10 Truffle Fries,,,,,,,,,,,,,,,,,,,,,,,,,,,,,,,,,,,,,,,
11,Tikis Grill & Bar,2570 Kalakaua Ave,Honolulu,HI,96815,(808) 923-8454,https://www.tikisgrill.com/,21.27245858,-157.8225717,3:00 PM,5:00 PM,3:00 PM,5:00 PM,3:00 PM,5:00 PM,3:00 PM,5:00 PM,3:00 PM,5:00 PM,3:00 PM,5:00 PM,3:00 PM,5:00 PM,7/17/2022,https://www.tikisgrill.com/menus,$11 Mai Tai,$5.50 Coors Light Draft,$7 Longboard Draft,$6 Furikake Fries,$6 Quesadilla,$6 Coconut Shrimp,$6 Arancini,$6 Brussel Sprouts,,,,,,,,,,,,,,,,,,,,,,,,,,,,,,,,,,,,
12,Deck,150 Kapahulu Ave,Honolulu,HI,96815,(808) 556-2435,https://deckwaikiki.com/,21.272028,-157.821182,2:00 PM,4:00 PM,2:00 PM,4:00 PM,2:00 PM,4:00 PM,2:00 PM,4:00 PM,2:00 PM,4:00 PM,,,,,7/17/2022,https://deckwaikiki.com/pauhana/,$7 Draft Beer,$6 Can Beer,$12 Mai Tai,$12 Liliko'i Margarita,$6 French Fries,$8 Truffle Fries,$11 Chicken Wings,$14 Calamari Fritti,$12 Chips & Guacamole,$11 Beef Sliders,$22 Pupu Style Grilled Angus Ribeye,$14 Catfish Basket,$10 Salmon Katsu Cakes,,,,,,,,,,,,,,,,,,,,,,,,,,,,,,,
13,Moku Kitchen,660 Ala Moana Blvd,Honolulu,HI,96813,(808) 591-6658,https://www.mokukitchen.com/home,21.298204,-157.861725,2:00 PM,5:30 PM,2:00 PM,5:30 PM,2:00 PM,5:30 PM,2:00 PM,5:30 PM,2:00 PM,5:30 PM,2:00 PM,5:30 PM,2:00 PM,5:30 PM,7/17/2022,https://www.mokukitchen.com/menu,$2 Off All Moku Libations,$2 Off All Wines by the Glass,$2 Off All Draft Beer,50% Off All Small Plates,$10 Pizzas,,,,,,,,,,,,,,,,,,,,,,,,,,,,,,,,,,,,,,,
14,Waikiki Brewing Company - Waikiki,1945 Kalakaua Ave,Honolulu,HI,96815,(808) 946-6590,https://waikikibrewing.com/waikiki/,21.28591267,-157.8335707,3:00 PM,5:00 PM,3:00 PM,5:00 PM,3:00 PM,5:00 PM,3:00 PM,5:00 PM,3:00 PM,5:00 PM,3:00 PM,5:00 PM,3:00 PM,5:00 PM,7/28/2022,https://waikikibrewing.com/pdf-menus/,$5.50 Core 9 Drafts,$5 Wells,$2 Off Wines,$12 Growler Fills,,,,,,,,,,,,,,,,,,,,,,,,,,,,,,,,,,,,,,,,
15,Waikiki Brewing Company - Waikiki,1945 Kalakaua Ave,Honolulu,HI,96815,(808) 946-6590,https://waikikibrewing.com/waikiki/,21.28591267,-157.8335707,9:00 PM,11:00 PM,9:00 PM,11:00 PM,9:00 PM,11:00 PM,9:00 PM,11:00 PM,9:00 PM,11:59 PM,9:00 PM,11:59 PM,9:00 PM,11:00 PM,7/28/2022,https://waikikibrewing.com/pdf-menus/,$5.50 Core 9 Drafts,$5 Wells,$2 Off Wines,$12 Growler Fills,,,,,,,,,,,,,,,,,,,,,,,,,,,,,,,,,,,,,,,,
16,Le'ahi Bar & Grill,2446 Koa Ave,Honolulu,HI,96815,(808) 762-9025,No Website Available,21.275787,-157.824127,4:00 PM,6:00 PM,4:00 PM,6:00 PM,4:00 PM,6:00 PM,4:00 PM,6:00 PM,4:00 PM,6:00 PM,4:00 PM,6:00 PM,4:00 PM,6:00 PM,1/7/2022,https://www.yelp.com/biz_photos/leahi-bar-and-grill-honolulu?select=gQCpuVSGDrvqlYEkgOz1sw,$8 Pinacolada,$8 Le'ahi Mai Tai,$6 Le'ahi Seltzer,$6 Lilikoi Margarita,$8 Le'ahi Mule,$8 Hawaiian Iced Tea,$8 Waikiki On The Beach,$8 Oahu Sunset,$8 Manoa Waterfall,$8 Ala Wai Water,$5-6 Beer,$6-13 Wine By The Glass,$10 Red/White Sangria,,,,,,,,,,,,,,,,,,,,,,,,,,,,,,,
17,O Bar,2490 Kalakaua Ave,Honolulu,HI,96815,(808) 922-1233,https://www.alohilaniresort.com/dining/o-bar/,21.274513,-157.823624,,,,,,,4:00 PM,6:00 PM,5:00 PM,7:00 PM,5:00 PM,7:00 PM,4:00 PM,6:00 PM,7/3/2022,https://www.alohilaniresort.com/dining/o-bar/o-bar-menu/,$10 Featured Wine,$1.50 Oysters (each),,,,,,,,,,,,,,,,,,,,,,,,,,,,,,,,,,,,,,,,,,
18,Sansei Seafood Restaurant & Sushi Bar,2552 Kalakaua Ave 3rd Fl,Honolulu,HI,96815,(808) 931-6286,https://dkrestaurants.com/index.php/restaurants/sansei_waikiki,21.273132,-157.822662,5:30 PM,6:00 PM,,,,,,,,,,,5:30 PM,6:00 PM,2/13/2022,https://dkrestaurants.com/Waikiki%20Sansei%20Dine%20In%20Menu%20as%20of%2010.22.21-letter.pdf,$5-6 Beer,$7 Wine,,,,,,,,,,,,,,,,,,,,,,,,,,,,,,,,,,,,,,,,,,
19,Chez Kenzo Bar & Grill,1451 S King St,Honolulu,HI,96814,(808) 941-2439,http://www.chezkenzo.net/menu.html,21.29765328,-157.8392341,5:00 PM,7:00 PM,5:00 PM,7:00 PM,5:00 PM,7:00 PM,5:00 PM,7:00 PM,5:00 PM,7:00 PM,5:00 PM,7:00 PM,5:00 PM,7:00 PM,4/18/2022,http://www.chezkenzo.net/images/chez-kenzo-menu.pdf,$5 Wines By The Glass,$4 Sake Cocktails,$6 House Sake,$6 Toki Highball,$5 Sake-tini,$2 Sake Shot,$4 Homemade Sangria,$2.99 Draft Beer,,,,,,,,,,,,,,,,,,,,,,,,,,,,,,,,,,,,
20,Odori-ko,1680 Kapiolani Blvd,Honolulu,HI,96814,(808) 955-6555,https://odori-ko.com/menu/,21.29172423,-157.8384656,4:30 PM,6:00 PM,4:30 PM,6:00 PM,4:30 PM,6:00 PM,4:30 PM,6:00 PM,4:30 PM,6:00 PM,4:30 PM,6:00 PM,4:30 PM,6:00 PM,3/7/2022,https://odori-ko.com/wp-content/uploads/2022/03/HH-Menu-2022-MAR-7.pdf,$4.50 Kirin Draft,$5.50 Shochikubai - 6 oz (hot or cold),"$5.50 CK Mondavi (Chardonnay, Cabernet)",$4 Oyster Shot,$10.75 Tofu Salad,$11 Salmon Sashimi,$8 California Roll,$8 Tempura Roll,$8 Salmon Skin Roll,$8 Spicy Tuna Roll,$12 Tuna Tartare,$11.25 Spicy Salmon Don,$14 Hamachi Carpaccio,,,,,,,,,,,,,,,,,,,,,,,,,,,,,,,
21,The Hall by Beer Lab HI,98-1005 Moanalua Rd Ste 884,Aiea,HI,96701,(808) 762-0027,https://www.beerlabhi.com/pearlridge,21.38506908,-157.9411056,3:00 PM,5:30 PM,3:00 PM,5:30 PM,3:00 PM,5:30 PM,3:00 PM,5:30 PM,,,,,,,7/18/2022,https://www.beerlabhi.com/_files/ugd/dd8370_8aab077c48524ecabd89107794cb151a.pdf,$2 Off Full Pour Beers,$1 Off Wine,$14 Tater Tot Nachos,$7 Kimchee Fried Rice,$8 Onion Rings,$9 Furikake Fries,$9 Garlic Fries,,,,,,,,,,,,,,,,,,,,,,,,,,,,,,,,,,,,,
22,Bevy,675 Auahi Street,Honolulu,HI,96813,(808) 594-7445,https://bevyhawaii.com/,21.29904019,-157.8613245,,,5:00 PM,7:00 PM,5:00 PM,7:00 PM,5:00 PM,7:00 PM,5:00 PM,7:00 PM,5:00 PM,7:00 PM,,,7/28/2022,https://bevyhawaii.com/happy-hour/,$4-5 Beer,$8 Wine,$10 Cocktails,$1 Off Kusshi or Goose Point Oyster (1pc),$6 Edamame with Hawaiian Salt and Sesame Oil (Spicy Optional +1),$9 Crispy Brussels,$6 Grilled Street Corn,$7 Chips and Salsa,$9 Chips and Guacamole,$13 Empanadas (3 ea),$15 Achiote Garlic Shrimp,$14 Happy Hour Tacos ,,,,,,,,,,,,,,,,,,,,,,,,,,,,,,,,
23,Tommy Bahama Restaurant - Waikiki,298 Beachwalk Dr,Honolulu,HI,96815,(808) 923-8785,https://www.tommybahama.com/restaurants/waikiki,21.28132869,-157.8307858,2:00 PM,5:00 PM,2:00 PM,5:00 PM,2:00 PM,5:00 PM,2:00 PM,5:00 PM,2:00 PM,5:00 PM,2:00 PM,5:00 PM,2:00 PM,5:00 PM,7/28/2022,https://www.tommybahama.com/content/dam/tommy/restaurants/waikiki/happyhour.pdf,$8-10 Wine,$11 Cocktails,$12 Martinis,$12 Blackened Mahi Mahi Tacos,$12 Coconut Shrimp,$12 Cheeseburger Sliders,$12 Brussels,$12 Macadamia Crusted Goat Cheese,$12 Duo of Dips,,,,,,,,,,,,,,,,,,,,,,,,,,,,,,,,,,,
24,Appetito Craft Pizza & Wine Bar,150 Kaiulani Ave,Honolulu,HI,96815,(808) 922-1150,https://appetitowaikiki.com/,21.27802759,-157.8247138,3:00 PM,6:00 PM,3:00 PM,6:00 PM,3:00 PM,6:00 PM,3:00 PM,6:00 PM,3:00 PM,6:00 PM,3:00 PM,6:00 PM,3:00 PM,6:00 PM,7/28/2022,https://appetitowaikiki.com/wp-content/uploads/Happy-Hour-Legal.pdf,$6 Draft Beer,$7 Wine / $30 Bottle,$9 Cocktails,$7 French Fries,$8 Grilled Shishito Peppers,$12 Portobello Fries,$12 Spicy Meatball,$8 Tuscan Hummus,$12 Gnocchi Alla Gorgonzola,$15 Margherita Pizza,$16 Italian Salami Pizza,$17 Boquerones Pizza,,,,,,,,,,,,,,,,,,,,,,,,,,,,,,,,
25,Zigu,"413 Seaside Ave, 1F",Honolulu,HI,96815,(808) 212-9252,https://www.zigu.us/,21.28072482,-157.8266365,4:00 PM,6:00 PM,4:00 PM,6:00 PM,4:00 PM,6:00 PM,4:00 PM,6:00 PM,4:00 PM,6:00 PM,4:00 PM,6:00 PM,4:00 PM,6:00 PM,7/28/2022,https://www.zigu.us/drink,$4.50-5 Beer,$4.50-5 Wine,$5 Cocktails,$7 Yaegaki Junmai 180ml,$12 Sake Flight ,$4 Edamame,$6 Homemade Local Fish Cake,$8 Red Skin Sweet Potato Salad,$7 French Fries,$9 Sumida Farm Watercress & Aloha Tofu Salad,$10 Mochiko Fried Chicken,$13 Assorted Tempura,$18 Sauteed Big Island Ginger Pork,$14 Today's Mix Poke,,,,,,,,,,,,,,,,,,,,,,,,,,,,,,
26,Paia Fish Market Waikiki,2299 Kuhio Ave,Honolulu,HI,96815,(808) 200-0200,https://paiafishmarket.com/,21.27951923,-157.8263926,3:00 PM,6:00 PM,3:00 PM,6:00 PM,3:00 PM,6:00 PM,3:00 PM,6:00 PM,3:00 PM,6:00 PM,3:00 PM,6:00 PM,3:00 PM,6:00 PM,12/29/2021,https://paiafishmarket.com/menu/,$6 Margarita,$6 Lilikoi Margarita,$6 Moscow Mule,$6 Mai Tai,,,,,,,,,,,,,,,,,,,,,,,,,,,,,,,,,,,,,,,,
27,Herringbone Waikiki,2330 Kalakaua Ave,Honolulu,HI,96815,(808) 797-2435,https://taogroup.com/venues/herringbone-waikiki/,21.27915322,-157.8267778,4:00 PM,6:00 PM,4:00 PM,6:00 PM,4:00 PM,6:00 PM,4:00 PM,6:00 PM,4:00 PM,6:00 PM,4:00 PM,6:00 PM,4:00 PM,6:00 PM,5/11/2022,https://aokieats.com/wp-content/uploads/sites/3/2022/05/HBHI-Oyster-Hour-5.11.22.pdf,$6 Beer,$7 Wine,$8 Cocktails,$3 Three Buck Shuck (3~/each),$6 Fish Taco,$8 Brussels & Macadamia Nuts,$13 Buffalo Octopus,$13 Furikake Tater Puffs,$15 Hamachi Crudo,$15 Pulehu Steak,,,,,,,,,,,,,,,,,,,,,,,,,,,,,,,,,,
28,La Pina Cantina,2330 Kalakaua Ave,Honolulu,HI,96815,(808) 470-3463,https://www.kuhioavenuefoodhall.com/location/la-pina/#happy-hour,21.27925858,-157.825934,2:00 PM,5:00 PM,2:00 PM,5:00 PM,2:00 PM,5:00 PM,2:00 PM,5:00 PM,2:00 PM,5:00 PM,2:00 PM,5:00 PM,2:00 PM,5:00 PM,7/28/2022,https://www.kuhioavenuefoodhall.com/location/la-pina/#happy-hour,$4 Beers,$12 Kirin Pitcher,$15 Bud Light Pitcher,$5 Off All Other Pitchers,$1 Off 12 Oz cup,$8-10 Signature Cocktails,$5-7 Frozen Cocktails,$5 Shots,$10-13 Tacos,$14-16 Nachos,,,,,,,,,,,,,,,,,,,,,,,,,,,,,,,,,,
29,et al.,4210 Waialae Ave Ste 401,Honolulu,HI,96816,(808) 732-2144,https://etalhawaii.com/,21.27934925,-157.7869878,2:00 PM,5:00 PM,2:00 PM,5:00 PM,2:00 PM,5:00 PM,2:00 PM,5:00 PM,2:00 PM,5:00 PM,2:00 PM,5:00 PM,2:00 PM,5:00 PM,5/1/2022,https://static1.squarespace.com/static/5f565d44150736732582118e/t/628661c4fb8c533c7e2a1334/1652974020963/et+al.+pau+hana+menu.pdf,$10 Specialty Cocktails,$8 Fries,$15 Arancini,MP - Tartare,$11 Oysters,MP - Crudo,$12 Marrow,$10 Chicken,$14 Pizza,$18 Burger,,,,,,,,,,,,,,,,,,,,,,,,,,,,,,,,,,
30,Eating House 1849 - Waikiki,2330 Kalakaua Ave Space 322,Honolulu,HI,96815,(808) 924-1849,https://www.royyamaguchi.com/eatinghouse1849-waikiki,21.27861313,-157.8262183,4:00 PM,5:00 PM,4:00 PM,5:00 PM,4:00 PM,5:00 PM,4:00 PM,5:00 PM,4:00 PM,5:00 PM,4:00 PM,5:00 PM,4:00 PM,5:00 PM,7/28/2022,https://www.royyamaguchi.com/eatinghouse1849-waikiki#menu-eating-house-1849-waikiki,$6 Local & Import Draft Beer,$8 Wines By The Glass,$10 Hawaiian Pineapple Martini,$10 Grand Breeze,$7 Poutine Fries,$7 Crispy Brussel Sprouts (Half Order),$7 Mongolian BBQ Baby Back Ribs (3pc),$7 Crispy Spicy Ahi Maki (3pc),$7 Chicken Spring Rolls (2pc / Cut In Half),$7 Kalbi Style Chicken Skewers (3pc),$22 1849 Burger & Aloha Beer Co. Special,,,,,,,,,,,,,,,,,,,,,,,,,,,,,,,,,
31,1938 Indochine,602 Ala Moana Blvd,Honolulu,HI,96813,(808) 545-7777,https://1938indochine.com/,21.29861427,-157.8621755,4:00 PM,6:00 PM,4:00 PM,6:00 PM,4:00 PM,6:00 PM,4:00 PM,6:00 PM,4:00 PM,6:00 PM,,,,,5/26/2022,https://1938indochine.com/wp-content/uploads/sites/7/2022/05/1938-Food-MENU-5.26.22.pdf,$6 Beer,$8 Wine,$9 Cocktails,$20 Aoki Bourbon Flight,$20 1942 Don Julio,$8 Glass Noodle Shrimp,$8 Le Citronelle Fried Chicken,$8 Chicken Laap,$8 Spicy Lemongrass Fries,$11 Colonial Crab Cake,$11 Nha Trang Ceviche,$11 Grilled Ocean Scallops,$11 Banh Mi Sliders,,,,,,,,,,,,,,,,,,,,,,,,,,,,,,,
32,Rigo,885 Kapahulu Ave,Honolulu,HI,96816,(808) 735-9760,https://rigohawaii.com/,21.28384238,-157.8135851,11:30 AM,3:00 PM,11:30 AM,3:00 PM,11:30 AM,3:00 PM,11:30 AM,3:00 PM,11:30 AM,3:00 PM,11:30 AM,3:00 PM,11:30 AM,3:00 PM,3/24/2022,https://rigohawaii.com/wp-content/uploads/2021/03/rigo_happyhour.pdf,$2 Off On All Beer & Wine,,,,,,,,,,,,,,,,,,,,,,,,,,,,,,,,,,,,,,,,,,,
33,Agave & Vine,1450 Ala Moana Blvd,Honolulu,HI,96814,(808) 462-3620,No Website Available,21.29077849,-157.8418751,3:00 PM,6:00 PM,3:00 PM,6:00 PM,3:00 PM,6:00 PM,3:00 PM,6:00 PM,3:00 PM,6:00 PM,3:00 PM,6:00 PM,3:00 PM,6:00 PM,11/16/2021,,$3 Beer,$3 Well Drinks,$4 House Red & White Wine,$5 Mai Tais,,,,,,,,,,,,,,,,,,,,,,,,,,,,,,,,,,,,,,,,
34,Agave & Vine,1450 Ala Moana Blvd,Honolulu,HI,96814,(808) 462-3620,No Website Available,21.29077849,-157.8418751,,,,,,,,,9:00 PM,11:59 PM,9:00 PM,11:59 PM,,,11/16/2021,,$2 Off All Draft Beers,$3 Tequila Poppers,,,,,,,,,,,,,,,,,,,,,,,,,,,,,,,,,,,,,,,,,,
35,Redfish Poke Bar,685 Auahi St,Honolulu,HI,96813,(808) 532-6420,https://www.redfishpoke.com/,21.29827893,-157.8609552,2:00 PM,6:00 PM,2:00 PM,6:00 PM,2:00 PM,6:00 PM,2:00 PM,6:00 PM,2:00 PM,6:00 PM,2:00 PM,6:00 PM,2:00 PM,6:00 PM,7/29/2022,https://static1.squarespace.com/static/5cfa1d34745eb00001f70cc3/t/6259bc7d9d1dde27e6956c42/1650048127166/Redfish+Happy+Hour+Menu.pdf,$11 Craft Cokctails,$8 Wine By The Glass,$6.50 Draft Beer,$2.50 Oysters On The Half Shell (ea),$8 Chicken Karaage,$8 Spicy Smoked Ahi Dip,$8 Kauai Style Truffle Fries,$8 XO Tofu,,,,,,,,,,,,,,,,,,,,,,,,,,,,,,,,,,,,
36,SWIM Restaurant and Bar,2424 Kalakaua Ave,Honolulu,HI,96815,(808) 923-1234,https://www.hyatt.com/en-US/hotel/hawaii/hyatt-regency-waikiki-beach-resort-and-spa/hnlrw/dining,21.27635038,-157.8254698,4:00 PM,6:00 PM,4:00 PM,6:00 PM,4:00 PM,6:00 PM,4:00 PM,6:00 PM,4:00 PM,6:00 PM,4:00 PM,6:00 PM,4:00 PM,6:00 PM,6/10/2022,https://qrstuff.s3.eu-west-1.amazonaws.com/file/20220610/111238/90307478ea493b13/SWIM%20Menu%208x14-June.pdf?X-Amz-Content-Sha256=UNSIGNED-PAYLOAD&X-Amz-Algorithm=AWS4-HMAC-SHA256&X-Amz-Credential=AKIAIE5CBLNMAXNAMVJA%2F20220730%2Feu-west-1%2Fs3%2Faws4_request&X-Amz-Date=20220730T023723Z&X-Amz-SignedHeaders=host&X-Amz-Expires=1200&X-Amz-Signature=2ba5ac521d39a762cada5f94ff9cd82d88d407d4cb81401e323036af242a16c3,$1 Off Selected Wines By The Glass,$2 Off Draft Beer & Tropical Temptations,"$5 Off Loco Moco, Off The Wall Burger, Hurricane Tots",$12 Bartender's Cocktail,,,,,,,,,,,,,,,,,,,,,,,,,,,,,,,,,,,,,,,,
37,Mahina & Sun's,412 Lewers St,Honolulu,HI,96815,(808) 924-5810,https://mahinaandsuns.com/,21.28187708,-157.828171,12:00 PM,5:30 PM,12:00 PM,5:30 PM,12:00 PM,5:30 PM,12:00 PM,5:30 PM,12:00 PM,5:30 PM,12:00 PM,5:30 PM,12:00 PM,5:30 PM,7/29/2022,https://uqrmecdn.s3.us-east-2.amazonaws.com/u/229573/609197-927597f7bc897b6194b275b5873e567d1c0d04.pdf,$5 Maui Hard Seltzer,$5 Maui Can Beer,$25 Bucket Of Maui Cans,$8 Well Liquors,"$8 House Wine (Red, White, Rose, Sparkling)",$8 Cocktails ($14 To Double Up),$12 Chicken Wings,$14 Kalua Pork Tacos,$14 Beef Burger,$14 Taro Burger,$12 Fried Fish Burger,$10 Hot Dog & Fries,$14 Fish & Chips,$13 Cheese Pizza,$15 Pepperoni Pizza,$15 Lanai Veggie Pizza,$10 Lanai Sassy Greens Salad,,,,,,,,,,,,,,,,,,,,,,,,,,,
38,BREW'd Craft Pub,3441 Waialae Ave,Honolulu,HI,96816,(808) 732-2337,https://www.brewdcraftpub.com/home,21.28423604,-157.8022493,4:00 PM,6:00 PM,4:00 PM,6:00 PM,4:00 PM,6:00 PM,4:00 PM,6:00 PM,4:00 PM,6:00 PM,,,,,4/18/2022,,$1 Off Full Size Draft,$10 BREW'd Craft Cocktail,$5 Call Liquors,,,,,,,,,,,,,,,,,,,,,,,,,,,,,,,,,,,,,,,,,
39,Maui Brewing Co. Waikiki,2300 Kalakaua Ave,Honolulu,HI,96815,(808) 843-2739,http://www.mbcrestaurants.com/waikiki/,21.27784808,-157.8272704,3:30 PM,4:30 PM,3:30 PM,4:30 PM,3:30 PM,4:30 PM,3:30 PM,4:30 PM,3:30 PM,4:30 PM,,,,,7/29/2022,https://www.mbcrestaurants.com/wp-content/uploads/2022/06/06.16-FINAL-MBCW-Food-Drink-Menu.pdf,$2 Off All Beers,$3 Off Culinary & Classic Cocktails,50% Off Select Apps,$10 Pizzas,,,,,,,,,,,,,,,,,,,,,,,,,,,,,,,,,,,,,,,,
40,Kona Brewing Co,7192 Kalanianaole Hwy,Honolulu,HI,96825,(808) 396-5662,https://www.konabrewinghawaii.com/,21.27809042,-157.7056245,3:00 PM,6:00 PM,3:00 PM,6:00 PM,3:00 PM,6:00 PM,3:00 PM,6:00 PM,3:00 PM,6:00 PM,,,,,7/29/2022,https://qrcgcustomers.s3-eu-west-1.amazonaws.com/account5817317/28754955_1.pdf?0.5235677811790067,$2 Off All Draft Beers,"$4.95 House Wine, Well Liquor + Soda",$3.95 Three Pepperoni Rolls,$3.95 Kalua Pork Taco,,,,,,,,,,,,,,,,,,,,,,,,,,,,,,,,,,,,,,,,
41,Osoyami Bar And Grill,1820 Algaroba St,Honolulu,HI,96826,(808) 200-0514,https://osoyami-bar-and-grill.square.site/,21.29498667,-157.8319873,6:00 PM,7:00 PM,6:00 PM,7:00 PM,6:00 PM,7:00 PM,6:00 PM,7:00 PM,6:00 PM,7:00 PM,6:00 PM,7:00 PM,6:00 PM,11:59 PM,7/29/2022,https://osoyami-bar-and-grill.square.site/menu,"$3 Bud Light, Coors Light, Miller High Life, Miller Light, PBR",$3 Well Drinks,$5 Fried Edamame,$5 Fried Kimchi Potstickers,$5 Mozzarella Sticks,$5 Taquitos,$8 Spinach Artichoke Dip,,,,,,,,,,,,,,,,,,,,,,,,,,,,,,,,,,,,,
42,Nico's Kailua,970 N Kalaheo Ave,Kailua,HI,96734,(808) 263-3787,https://nicoskailua.com/,21.42032795,-157.7477307,4:00 PM,6:00 PM,4:00 PM,6:00 PM,4:00 PM,6:00 PM,4:00 PM,6:00 PM,4:00 PM,6:00 PM,4:00 PM,6:00 PM,3:00 PM,6:00 PM,7/29/2022,https://nicoskailua.com/bar/,$5 Draft Beer,$5 Wells & Mixers,,,,,,,,,,,,,,,,,,,,,,,,,,,,,,,,,,,,,,,,,,
43,Margaritas,808 Sheridan St Ste 111,Honolulu,HI,96814,(808) 330-6880,https://www.margaritashawaii.com/,21.29686709,-157.8421789,5:00 PM,6:00 PM,5:00 PM,6:00 PM,5:00 PM,6:00 PM,5:00 PM,6:00 PM,5:00 PM,6:00 PM,5:00 PM,6:00 PM,5:00 PM,6:00 PM,7/29/2022,https://www.margaritashawaii.com/new-page-1,$2 Off All Margaritas,$2 Off All Tap Beer,,,,,,,,,,,,,,,,,,,,,,,,,,,,,,,,,,,,,,,,,,
44,Tanaka Ramen & Izakaya,1450 Ala Moana Blvd Fl 2 Ala Moana Shopping Center,Honolulu,HI,96814,(808) 400-0506,https://tanakaramen.com/,21.29188007,-157.8441482,2:00 PM,6:00 PM,2:00 PM,6:00 PM,2:00 PM,6:00 PM,2:00 PM,6:00 PM,2:00 PM,6:00 PM,,,,,5/13/2022,,$4 Asahi Supper Dry,$4 Sapporo,$6-7 Well Drinks,$6 Wine By Glass,$5 House Sake (Hot) 6oz,$3 Edamame,$3.50 Original Fries,$4 Cumin Fries,$5 Karaage Chicken (5pc),$5 Crispy Chicken Wings,$5 Pork Gyoza (6pc),$5 Oyster (3pc),$3.50 Seaweed Salad,,,,,,,,,,,,,,,,,,,,,,,,,,,,,,,
45,Maui Brewing Co. Kailua,573 Kailua Rd Ste 105,Kailua,HI,96734,(808) 518-2739,https://www.mbcrestaurants.com/kailua/,21.39366798,-157.7412837,3:30 PM,5:30 PM,3:30 PM,5:30 PM,3:30 PM,5:30 PM,3:30 PM,5:30 PM,3:30 PM,5:30 PM,,,,,7/29/2022,https://www.mbcrestaurants.com/wp-content/uploads/2022/06/06.16-FINAL-MBCW-Food-Drink-Menu.pdf,$2 Off All Beers,$3 Off Culinary & Classic Cocktails,50% Off Select Apps,$10 Pizzas,,,,,,,,,,,,,,,,,,,,,,,,,,,,,,,,,,,,,,,,
46,Easy ‘Que,767 Kailua Rd Ste 106,Kailua,HI,96734,(808) 762-3089,https://www.easyquehi.com/easy-que,21.39315504,-157.7448759,3:00 PM,5:00 PM,3:00 PM,5:00 PM,3:00 PM,5:00 PM,3:00 PM,5:00 PM,3:00 PM,5:00 PM,3:00 PM,5:00 PM,3:00 PM,5:00 PM,7/29/2022,https://www.easyquehi.com/easy-que,$3 Bourbon,$10 PBR Pitcher,$5 Heineken Bottle,$6 Gin & Tonic,$8 Are Yuzu Good For It?,$9 BBQ Brisket Flatbread,$9 Loaded Tots With Kalua Pig,$8 Fried Mac n' Cheese Balls,$8 Spinach Dip,,,,,,,,,,,,,,,,,,,,,,,,,,,,,,,,,,,
47,Aloha Table,2238 Lauula St Fl 2,Honolulu,HI,96815,(808) 922-2221,http://waikiki.alohatable.com,21.2798769,-157.8282087,4:00 PM,6:00 PM,4:00 PM,6:00 PM,4:00 PM,6:00 PM,4:00 PM,6:00 PM,4:00 PM,6:00 PM,4:00 PM,6:00 PM,4:00 PM,6:00 PM,7/29/2022,,,,,,,,,,,,,,,,,,,,,,,,,,,,,,,,,,,,,,,,,,,,,
48,Waikiki Brewing Company - Kakaako,831 Queen St,Honolulu,HI,96813,(808) 591-0387,https://waikikibrewing.com/kakaako/,21.29917369,-157.8559676,3:00 PM,5:00 PM,3:00 PM,5:00 PM,3:00 PM,5:00 PM,3:00 PM,5:00 PM,3:00 PM,5:00 PM,3:00 PM,5:00 PM,3:00 PM,5:00 PM,7/29/2022,https://waikikibrewing.com/pdf-menus/,$5.50 Regular WBC Drafts,$5 Well Drinks & House Wines,$12 Regular WBC Growler Fills,15% Off Appetizers & Pizzas,,,,,,,,,,,,,,,,,,,,,,,,,,,,,,,,,,,,,,,,
49,Waikiki Brewing Company - Kakaako,831 Queen St,Honolulu,HI,96813,(808) 591-0387,https://waikikibrewing.com/kakaako/,21.29917369,-157.8559676,9:00 PM,10:00 PM,9:00 PM,10:00 PM,9:00 PM,10:00 PM,9:00 PM,10:00 PM,9:00 PM,11:00 PM,9:00 PM,11:00 PM,9:00 PM,10:00 PM,7/29/2022,https://waikikibrewing.com/pdf-menus/,$5.50 Regular WBC Drafts,$5 Well Drinks & House Wines,$12 Regular WBC Growler Fills,15% Off Appetizers & Pizzas,,,,,,,,,,,,,,,,,,,,,,,,,,,,,,,,,,,,,,,,
50,Lulu's Waikiki,2586 Kalakaua Ave,Honolulu,HI,96815,(808) 926-5222,https://www.luluswaikiki.com/,21.27180008,-157.8226419,9:00 PM,11:30 PM,9:00 PM,11:30 PM,9:00 PM,11:30 PM,9:00 PM,11:30 PM,9:00 PM,11:30 PM,9:00 PM,11:30 PM,9:00 PM,11:30 PM,7/29/2022,https://www.luluswaikiki.com/menus,,,,,,,,,,,,,,,,,,,,,,,,,,,,,,,,,,,,,,,,,,,,
51,Amuse Wine Bar,1250 Kapiolani Blvd Fl 2,Honolulu,HI,96814,(808) 237-5428,https://www.stagerestauranthawaii.com/location/amuse-wine-bar/,21.29517269,-157.8462491,,,5:00 PM,6:00 PM,5:00 PM,6:00 PM,5:00 PM,6:00 PM,5:00 PM,6:00 PM,5:00 PM,6:00 PM,,,7/29/2022,https://www.stagerestauranthawaii.com/location/amuse-wine-bar/,$7 Beer,$7 Wine By The Glass,$7 Cocktail,,,,,,,,,,,,,,,,,,,,,,,,,,,,,,,,,,,,,,,,,
52,Smith & Kings,69 N King St,Honolulu,HI,96817,(808) 744-5772,https://www.thesmithandkings.com/,21.31131865,-157.8634994,3:00 PM,6:00 PM,3:00 PM,6:00 PM,3:00 PM,6:00 PM,3:00 PM,6:00 PM,3:00 PM,6:00 PM,3:00 PM,6:00 PM,3:00 PM,6:00 PM,1/30/2022,https://www.thesmithandkings.com/,,,,,,,,,,,,,,,,,,,,,,,,,,,,,,,,,,,,,,,,,,,,
53,Tipsy Pig II Bar & Grill,1272 S King St,Honolulu,HI,96814,(808) 367-8060,No Website Available,21.29941738,-157.8422739,5:30 PM,6:30 PM,5:30 PM,6:30 PM,5:30 PM,6:30 PM,5:30 PM,6:30 PM,5:30 PM,6:30 PM,5:30 PM,6:30 PM,5:30 PM,6:30 PM,1/29/2019,,$2 Off Any Menu Item,,,,,,,,,,,,,,,,,,,,,,,,,,,,,,,,,,,,,,,,,,,
54,Skybox Taphouse,2330 Kalakaua Ave Ste 302,Honolulu,HI,96815,(808) 378-8542,https://www.skyboxtaphouse.com/,21.27836718,-157.8266212,2:00 PM,5:00 PM,2:00 PM,5:00 PM,2:00 PM,5:00 PM,2:00 PM,5:00 PM,2:00 PM,5:00 PM,,,,,7/29/2022,https://www.skyboxtaphouse.com/menu/,$5 Bud Light,$6 Kona Longboard,$7 Maui Coconut Hiew,$2 Off Local Can Beer/Cider,$7 House Wine ,$5 Limoncello Shot,$7 Pain-Relief,$7 Moscow/Kentucky Mule,$20 Four Beer Variety Buckets,$2 Off Jameson & Tito's,$7 Green Tea Shots,$9 Happy Hour Personal Cheese Pizza,$10 Happy Hour Personal Pepperoni Pizza,$14 Burger & Beer Combo,$5 Off Any Pizza,$3 Off Any Dessert,$14 Waffle Battered Chicken Strips,,,,,,,,,,,,,,,,,,,,,,,,,,,
55,Encore Saloon,10 North Hotel St,Honolulu,HI,96817,(808) 367-1656,http://www.encoresaloon.com/#bienvenidos,21.31127167,-157.8620787,2:00 PM,5:30 PM,2:00 PM,5:30 PM,2:00 PM,5:30 PM,2:00 PM,5:30 PM,2:00 PM,5:30 PM,2:00 PM,11:59 PM,2:00 PM,5:30 PM,11/12/2021,https://static1.squarespace.com/static/57d8bcffcd0f6826f94c8779/t/611c0d58a2fd2b352cdf7c9c/1629228385965/Encore+Saloon_Table+Tent_No+Pricing_8.17.21.pdf,$6 Margarita,$6 Slushies,$9 Paloma,$9 Mezcalrita,$25 Margarita Pitcher,$25 Slushy Pitcher,$29 Paloma Pitcher,$1 Off Draft Beer,,,,,,,,,,,,,,,,,,,,,,,,,,,,,,,,,,,,
56,Encore Saloon,10 North Hotel St,Honolulu,HI,96817,(808) 367-1656,http://www.encoresaloon.com/#bienvenidos,21.31127167,-157.8620787,,,,,,,,,,,,,12:00 AM,1:00 AM,11/12/2021,https://static1.squarespace.com/static/57d8bcffcd0f6826f94c8779/t/611c0d58a2fd2b352cdf7c9c/1629228385965/Encore+Saloon_Table+Tent_No+Pricing_8.17.21.pdf,$6 Margarita,$6 Slushies,$9 Paloma,$9 Mezcalrita,$25 Margarita Pitcher,$25 Slushy Pitcher,$29 Paloma Pitcher,$1 Off Draft Beer,,,,,,,,,,,,,,,,,,,,,,,,,,,,,,,,,,,,
57,Tropics Ale House Waikiki,1778 Ala Moana Blvd Ste 115,Honolulu,HI,96815,(808) 691-9551,https://www.tropicsalehousehonolulu.com/,21.28535043,-157.8381379,4:00 PM,6:00 PM,4:00 PM,6:00 PM,4:00 PM,6:00 PM,4:00 PM,6:00 PM,4:00 PM,7:00 PM,4:00 PM,6:00 PM,4:00 PM,6:00 PM,7/29/2022,https://www.tropicsalehousehonolulu.com/happy-hour,$5 Happy Hour Pils,$5 Guinness Nitro Stout,$5 Happy Hour Pale Ale,"$5 Edamame (Salt, Garlic or Angry)",$6 Happy Hour IPA,$6 Lilikoi Margarita,$6 Peach Palmer,$6 Happy Hour Red/White Wine,"$6 French Fries (Salt, Fuikake or Truffle Parmesan)",$7 Hawaii Tai,$7 Ale House Sliders,$7 Pulled Pork Sliders,$7 Greek Salad,$7 Fried Calamari,$8 Volcano Nachos,$9 Cheese Pizza,,,,,,,,,,,,,,,,,,,,,,,,,,,,
58,Kailua Town Pub & Grill,26 Hoolai St Ste 1100,Kailua,HI,96734,(808) 230-8444,https://kailuatownpub.com/,21.3946317,-157.7443483,3:00 PM,5:00 PM,3:00 PM,5:00 PM,3:00 PM,5:00 PM,3:00 PM,5:00 PM,3:00 PM,5:00 PM,3:00 PM,5:00 PM,3:00 PM,5:00 PM,7/29/2022,https://kailuatownpub.com/wp-content/uploads/2021/02/KTP-Menu-010821.pdf,,,,,,,,,,,,,,,,,,,,,,,,,,,,,,,,,,,,,,,,,,,,
59,Fete Hawaii,2 N Hotel St,Honolulu,HI,96817,(808) 369-1390,https://www.fetehawaii.com/,21.31122958,-157.8620231,2:00 PM,5:00 PM,2:00 PM,5:00 PM,2:00 PM,5:00 PM,2:00 PM,5:00 PM,2:00 PM,5:00 PM,8:00 PM,11:00 PM,,,10/1/2017,https://irp.cdn-website.com/9eedda4e/files/uploaded/dinner-8x14_June-2022.pdf,,,,,,,,,,,,,,,,,,,,,,,,,,,,,,,,,,,,,,,,,,,,
60,Little Joe's Steakhouse,580 N Nimitz Hwy,Honolulu,HI,96817,(808) 524-0088,https://www.littlejoessteakhouse.com/menus,21.31370438,-157.8693893,4:30 PM,6:30 PM,4:30 PM,6:30 PM,4:30 PM,6:30 PM,4:30 PM,6:30 PM,4:30 PM,6:30 PM,4:30 PM,6:30 PM,4:30 PM,6:30 PM,7/29/2022,https://www.littlejoessteakhouse.com/_files/ugd/cb1349_c5964d3dab2d408ba8e00003d9db323e.pdf,$4.95 Beer,$8.95 White & Sparkling Wine,$7.50-11.95 Red Wine By The Glass,,,,,,,,,,,,,,,,,,,,,,,,,,,,,,,,,,,,,,,,,
61,Pau Hana Base,407 Seaside Ave Ste 107,Honolulu,HI,96815,(808) 492-1280,No Website Available,21.28032528,-157.8266523,5:00 PM,7:00 PM,5:00 PM,7:00 PM,5:00 PM,7:00 PM,5:00 PM,7:00 PM,5:00 PM,7:00 PM,5:00 PM,7:00 PM,5:00 PM,7:00 PM,10/22/2019,,$3 Beer,$3-3.50 Pupus,,,,,,,,,,,,,,,,,,,,,,,,,,,,,,,,,,,,,,,,,,
62,Yakitori Glad,766 Kapahulu Ave,Honolulu,HI,96816,(808) 734-0077,https://yakitori-glad-hawaii.business.site/,21.28139908,-157.8143173,5:00 PM,6:30 PM,5:00 PM,6:30 PM,5:00 PM,6:30 PM,5:00 PM,6:30 PM,5:00 PM,6:30 PM,5:00 PM,6:30 PM,5:00 PM,6:30 PM,4/14/2021,,$3 Asahi Pint,,,,,,,,,,,,,,,,,,,,,,,,,,,,,,,,,,,,,,,,,,,
63,Ruscello,1450 Ala Moana Blvd Ste 2950,Honolulu,HI,96814,(808) 953-6110,https://www.nordstrom.com/store-details/united-states/hi/honolulu/nordstrom-ala-moana,21.29236454,-157.8469953,3:00 PM,5:00 PM,3:00 PM,5:00 PM,3:00 PM,5:00 PM,3:00 PM,5:00 PM,3:00 PM,5:00 PM,,,,,2/9/2020,https://n.nordstrommedia.com/id/57f4bfc5-f3ad-40e7-b78e-79ac25dc7cb7.pdf,$4 Beers,$5 Wine,$6 Spirits,$8 Market Burger,$5 Crispy Brussels Sprouts,$6 Fried Calamari,$6 Heirloom Tomatoes & Burrata,,,,,,,,,,,,,,,,,,,,,,,,,,,,,,,,,,,,,
64,Tropics Bar & Grill,2005 Kalia Rd,Honolulu,HI,96815,(808) 949-4321,https://www.hiltonhawaiianvillage.com/dining/tropics-bar-and-grill,21.28163229,-157.8375245,2:00 PM,4:00 PM,2:00 PM,4:00 PM,2:00 PM,4:00 PM,2:00 PM,4:00 PM,2:00 PM,4:00 PM,2:00 PM,4:00 PM,2:00 PM,4:00 PM,11/20/2019,,$2 Off Blue Hawaii,$2 Off Village Mai Tai,$2 Off Draft Beer,$2 Off Wine By The Glass,$8 Ocean Breeze,$8 Mad About Mango,$35 Bottle of Select Red/Wine Wine,,,,,,,,,,,,,,,,,,,,,,,,,,,,,,,,,,,,,
65,Square Barrels,1001 Bishop St Ste 108,Honolulu,HI,96813,(808) 524-2747,https://www.squarebarrels.com/,21.30894248,-157.8601201,3:00 PM,6:00 PM,3:00 PM,6:00 PM,3:00 PM,6:00 PM,3:00 PM,6:00 PM,3:00 PM,6:00 PM,3:00 PM,6:00 PM,,,6/4/2019,https://www.squarebarrels.com/menu,$2 Off Beer Faucets,$2 Off Modern Times Cans,$2 Off Wine By The Glass,$2 Off Select Cocktails ,$2 Off Appetizers,$10 Drive-Thru Burger With Fries,$9 Glazed & Confused Burger,,,,,,,,,,,,,,,,,,,,,,,,,,,,,,,,,,,,,
66,The Shack Kailua,1051 Keolu Dr,Kailua,HI,96734,(808) 261-1191,http://www.theshackkailua.com/,21.37797188,-157.7281356,3:00 PM,6:00 PM,3:00 PM,6:00 PM,3:00 PM,6:00 PM,3:00 PM,6:00 PM,3:00 PM,6:00 PM,3:00 PM,6:00 PM,3:00 PM,6:00 PM,4/28/2019,,,,,,,,,,,,,,,,,,,,,,,,,,,,,,,,,,,,,,,,,,,,,
67,Hangry Mama Bar & Kitchen,803 Kamehameha Hwy Unit 116,Pearl City,HI,96782,(808) 888-8834,No Website Available,21.39256342,-157.9677976,11:00 AM,6:00 PM,11:00 AM,6:00 PM,11:00 AM,6:00 PM,11:00 AM,6:00 PM,11:00 AM,6:00 PM,11:00 AM,6:00 PM,11:00 AM,6:00 PM,7/19/2022,,$3 Domestic Beers,$5 Import Beers,,,,,,,,,,,,,,,,,,,,,,,,,,,,,,,,,,,,,,,,,,
68,Cafe Duck Butt,901 Kawaiahao St,Honolulu,HI,96814,(808) 593-1880,No Website Available,21.29838284,-157.8542373,5:00 PM,7:00 PM,5:00 PM,7:00 PM,5:00 PM,7:00 PM,5:00 PM,7:00 PM,5:00 PM,7:00 PM,5:00 PM,7:00 PM,5:00 PM,7:00 PM,7/17/2017,,,,,,,,,,,,,,,,,,,,,,,,,,,,,,,,,,,,,,,,,,,,,
69,Mai Tai's,1450 Ala Moana Blvd Ste 3247,Honolulu,HI,96814,(808) 941-4400,https://menus.menupoint.net/Mai+Tais+Bar+%26+Grill/index.html,21.29030568,-157.8425056,4:00 PM,7:00 PM,4:00 PM,7:00 PM,4:00 PM,7:00 PM,4:00 PM,7:00 PM,4:00 PM,7:00 PM,4:00 PM,7:00 PM,4:00 PM,7:00 PM,7/29/2022,https://menus.menupoint.net/Mai+Tais+Bar+%26+Grill/happyhour.html,$4.50 Pints or Bottles,$10.50 Pitchers,$6 Wine,$6.50 Original Mai Tai,$6.50 Makai Tai,$6.50 1944 Mai Tai,$6.50 Mango Sunrise,$6.50 Cucumber Spritz,$6.50 Lychee Sunset,$6.50 Mango Mojito,$6.50 Lilikoi Mojito,$10 Popcorn Shrimp,$10 Fire Shrimp,$9 Onion Rings,$8 Edamame,$10 Potato Cakes,,,,,,,,,,,,,,,,,,,,,,,,,,,,
70,Mai Tai's,1450 Ala Moana Blvd Ste 3247,Honolulu,HI,96814,(808) 941-4400,https://menus.menupoint.net/Mai+Tais+Bar+%26+Grill/index.html,21.29030568,-157.8425056,8:00 PM,11:00 PM,8:00 PM,11:00 PM,8:00 PM,11:00 PM,8:00 PM,11:00 PM,8:00 PM,11:00 PM,8:00 PM,11:00 PM,8:00 PM,11:00 PM,7/29/2022,https://menus.menupoint.net/Mai+Tais+Bar+%26+Grill/happyhour.html,$6.50 Original Mai Tai,$6.50 Makai Tai,$6.50 1944 Mai Tai,$6.50 Mango Sunrise,$6.50 Cucumber Spritz,$6.50 Lychee Sunset,$6.50 Tropical Tsunami,,,,,,,,,,,,,,,,,,,,,,,,,,,,,,,,,,,,,
71,Manifest,32 N Hotel St,Honolulu,HI,96817,No Phone Number Provided,https://www.manifesthawaii.com/,21.31147865,-157.8623118,6:00 PM,9:00 PM,6:00 PM,9:00 PM,6:00 PM,9:00 PM,6:00 PM,9:00 PM,6:00 PM,9:00 PM,6:00 PM,9:00 PM,6:00 PM,9:00 PM,3/22/2020,https://www.yelp.com/biz_photos/manifest-honolulu?select=44q4MhzTShq4lMjfYztJbQ,$2 Off Menu Cocktails,$1 Off Local Beers,$1 Off Wine By The Glass,,,,,,,,,,,,,,,,,,,,,,,,,,,,,,,,,,,,,,,,,
72,Pesca Waikiki Beach,1777 Ala Moana Blvd Fl 30,Honolulu,HI,96815,(808) 777-3100,https://www.pescasea.com/,21.28431545,-157.8383958,3:00 PM,6:00 PM,3:00 PM,6:00 PM,3:00 PM,6:00 PM,3:00 PM,6:00 PM,3:00 PM,6:00 PM,3:00 PM,6:00 PM,3:00 PM,6:00 PM,6/4/2022,https://www.pescasea.com/happy-hour,$7 Beer,$10 Wine,$10 Well Cocktails,$12 Specialty Cocktails,$12 Purple Potato Chips,$12 Calamari,$12 Burrata & Tomato Salad,$18 2pc Jumbo Shrimp,$14 3pc Fresh Oysters,$14 Local Ahi Sashimi,$18 Seafood Bruchetta,,,,,,,,,,,,,,,,,,,,,,,,,,,,,,,,,
73,eight50,850 Kamehameha Hwy,Pearl City,HI,96782,(808) 454-1850,http://www.eight50hi.com/,21.39432984,-157.9675972,3:30 PM,6:00 PM,3:30 PM,6:00 PM,3:30 PM,6:00 PM,3:30 PM,6:00 PM,3:30 PM,6:00 PM,3:30 PM,6:00 PM,3:30 PM,6:00 PM,9/22/2017,https://www.yelp.com/biz_photos/eight50-pearl-city-5?select=FpdjtM92CEuHpTffOFZCmA,,,,,,,,,,,,,,,,,,,,,,,,,,,,,,,,,,,,,,,,,,,,
74,eight50,850 Kamehameha Hwy,Pearl City,HI,96782,(808) 454-1850,http://www.eight50hi.com/,21.39432984,-157.9675972,9:00 PM,11:30 PM,9:00 PM,11:30 PM,9:00 PM,11:30 PM,9:00 PM,11:30 PM,9:00 PM,11:30 PM,9:00 PM,11:30 PM,9:00 PM,11:30 PM,9/22/2017,https://www.yelp.com/biz_photos/eight50-pearl-city-5?select=FpdjtM92CEuHpTffOFZCmA,,,,,,,,,,,,,,,,,,,,,,,,,,,,,,,,,,,,,,,,,,,,
75,Taps & Apps,95-1830 Meheula Pkwy Ste C6,Mililani,HI,96789,(808) 626-8277,https://tapsandappsbrewpub.com/,21.46707574,-158.0023171,3:30 PM,7:00 PM,3:30 PM,7:00 PM,3:30 PM,7:00 PM,3:30 PM,7:00 PM,3:30 PM,7:00 PM,,,,,4/10/2018,https://tapsandappsbrewpub.com/menus/,"$4 Guinness, Fat Tire & Bikini Blonde",$12 Craft Beer Flights,$5 Well Drinks,$5 House Long Island,$7 Pork Belly Arancini w/ Hoisen Sriracha Sauce,$8 Golden Fried Buttermilk Chicken Strips w/ Pub Ranch,$7 Cheese Burger Sliders,$8 Calamari Strips w/ Sweet Chili Sauce,$7 Pupu Crab Melt,$9 House Wings ,$8 Hapa Nachos,$8 Bacon & Cheese Fries,$15 T&A App Flight (Choose Any 3),,,,,,,,,,,,,,,,,,,,,,,,,,,,,,,
76,Oahu Mexican Grill,2520 Kalakaua Ave Fl 2,Honolulu,HI,96815,(808) 927-3720,https://www.omg.menu/,21.27345412,-157.8234995,3:00 PM,6:00 PM,3:00 PM,6:00 PM,3:00 PM,6:00 PM,3:00 PM,6:00 PM,3:00 PM,6:00 PM,3:00 PM,6:00 PM,3:00 PM,6:00 PM,5/21/2018,https://www.yelp.com/biz_photos/oahu-mexican-grill-honolulu?select=9z629aKnu6XYQGv1yYaIBQ,,,,,,,,,,,,,,,,,,,,,,,,,,,,,,,,,,,,,,,,,,,,
77,Stripsteak Waikiki,2330 Kalakaua Ave Ste 330,Honolulu,HI,96815,(808) 896-2545,https://www.michaelmina.net/restaurants/stripsteak-waikiki-jp/,21.27798509,-157.8265664,4:00 PM,6:00 PM,4:00 PM,6:00 PM,4:00 PM,6:00 PM,4:00 PM,6:00 PM,4:00 PM,6:00 PM,4:00 PM,6:00 PM,4:00 PM,6:00 PM,7/30/2022,http://mx.michaelmina.net/recipe-exchange/download/?file_id=33061&nodl=true&_gl=1*a39yl4*_ga*NDA4NjY1NTAxLjE2NTc4NjcwODY.*_ga_2DRBF0KKSN*MTY1OTIxMjE2MC4yLjEuMTY1OTIxMjE3MS4w,$5 Beer,$9 Wine,$9 Sake,$9 Spring Julep,$9 Lilikoi Mai Tai,$9 Island Tea,$9 Pau Hana (Heineken & Jim Beam),$9 Da Kine (Miller High Life & Espolon Blanco),$7 Spicy Ahi Tuna Taco,$16 Foie Gras & Pineapple Kushiyaki,$14 Sesame Shrimp Toast,$12 Pacific Oysters (3pc),$14 Hand-Cut Prime Beef Tartare,$8 Kung Pao Edamame,$9 Duck Fat French Fries,$19 Udon Noodle Carbonara,$21 Holo Holo Burger & Fries,$49 12oz NY Strip Steak,,,,,,,,,,,,,,,,,,,,,,,,,,
78,Heavenly,342 Seaside Ave,Honolulu,HI,96815,(808) 923-1100,https://www.heavenly-waikiki.com/,21.27990468,-157.8278577,4:00 PM,6:00 PM,4:00 PM,6:00 PM,4:00 PM,6:00 PM,4:00 PM,6:00 PM,4:00 PM,6:00 PM,4:00 PM,6:00 PM,4:00 PM,6:00 PM,7/30/2022,https://sites.google.com/alohatable.jp/heavenlyislandlifestyle/home/happy-hour4pm-pm,$5 Kona Longboard Lager,$5 Kona Big Wave Golden Ale,$5 Kona Fire Rock Pale Ale,$5.50 Maui Brewing Co. Big Swell IPA,$$ Maui Brewing Co. Bikini Blonde Lager,$5.50 Maui Brewing Co. Mana Wheat,$4 Bud Light,$4.50 Heineken,$4.50 Corona,"$8.50 Heavenly's Mojito (Standard, Mango, Acai)",$8.50 Mai Tai,$5 Wine By The Glass,"$5 Heavenly's Mimosa (Pineapple, Guava, Mango, Acai)",$10 Crispy Flat Bread Pizza,$10.50 Original Fried Chicken Wings ,$7.50 Avocado Guacamole,$13.50 Big Island Ginger Ahi Poke,$11 Local Lettuce Wrap,$4.50 French Fries,$3 Edamame,$17 Beer Batter Fish & Chips,$16 Kauai Garlic Shrimp (6pc),$9 Organic Beets Salad,$9 Organic Carrot Salad,,,,,,,,,,,,,,,,,,,,
79,TEX 808 BBQ & Brews,2299 Kuhio Ave,Honolulu,HI,96815,(808) 888-2495,https://tex808.square.site/home,21.27929928,-157.826414,11:00 AM,5:00 PM,11:00 AM,5:00 PM,11:00 AM,5:00 PM,11:00 AM,5:00 PM,11:00 AM,5:00 PM,11:00 AM,5:00 PM,11:00 AM,5:00 PM,3/2/2022,https://tex808.square.site/,1/2 Off Select Apps,$4 PBR,$5 Modelo,$5 Frozen Margaritas,$5 Titos,$8 Pineapple Express,,,,,,,,,,,,,,,,,,,,,,,,,,,,,,,,,,,,,,
80,TEX 808 BBQ & Brews,2299 Kuhio Ave,Honolulu,HI,96815,(808) 888-2495,https://tex808.square.site/home,21.27929928,-157.826414,9:00 PM,11:00 PM,9:00 PM,11:00 PM,9:00 PM,11:00 PM,9:00 PM,11:00 PM,9:00 PM,11:59 PM,9:00 PM,11:59 PM,9:00 PM,11:00 PM,3/2/2022,https://tex808.square.site/,1/2 Off Select Apps,$4 PBR,$5 Modelo,$5 Frozen Margaritas,$5 Titos,$8 Pineapple Express,,,,,,,,,,,,,,,,,,,,,,,,,,,,,,,,,,,,,,
81,Aloha Beer Downtown,220 S King St,Honolulu,HI,96813,(808) 200-5353,https://www.alohabeer.co/,21.30783314,-157.8605176,2:00 PM,5:00 PM,2:00 PM,5:00 PM,2:00 PM,5:00 PM,,,,,,,,,7/30/2022,https://www.alohabeer.co/,"$2 Off All Aloha Beer On Tap (Includes Pints, Pitchers, Growler Fills)",,,,,,,,,,,,,,,,,,,,,,,,,,,,,,,,,,,,,,,,,,,
82,TsuruTonTan Udon Noodle Brasserie,2233 Kalakaua Ave B310,Honolulu,HI,96815,(808) 888-8559,https://www.tsurutontan.com/hawaii,21.27880838,-157.8293905,11:00 AM,5:30 PM,11:00 AM,5:30 PM,11:00 AM,5:30 PM,11:00 AM,5:30 PM,11:00 AM,5:30 PM,11:00 AM,5:30 PM,11:00 AM,5:30 PM,7/26/2022,https://www.tsurutontan.com/hawaii#menu=hawaii-happy-hour,$5-6 Beer,$7 House Red/White Wine,$10 Select Wine By The Glass,$7 Hot/Cold Sake,$21 Mio Sparkling Sake (300 ml),$20 Creme de Sake (300 ml),$7 Hard Seltzer,$7 Calpico Chuhai,$8 Highball,$7 Iichiko ,$7 Iichiko Mugi ,,,,,,,,,,,,,,,,,,,,,,,,,,,,,,,,,
83,Paia Fish Market Kailua,151 Hekili St,Kailua,HI,96734,(808) 772-4270,https://paiafishmarket.com/,21.39174748,-157.7413399,3:00 PM,6:00 PM,3:00 PM,6:00 PM,3:00 PM,6:00 PM,3:00 PM,6:00 PM,3:00 PM,6:00 PM,3:00 PM,6:00 PM,3:00 PM,6:00 PM,7/16/2022,https://paiafishmarket.com/menu/,$8 Margarita,$8 Lilikoi Margarita,$8 Moscow Mule,$8 Mai Tai,$8 Mojito,,,,,,,,,,,,,,,,,,,,,,,,,,,,,,,,,,,,,,,
84,The Shack Mililani,95-221 Kipapa Dr,Mililani,HI,96789,(808) 627-1561,https://theshackmililani.com/,21.4572741,-158.0155073,4:00 PM,6:00 PM,4:00 PM,6:00 PM,4:00 PM,6:00 PM,4:00 PM,6:00 PM,4:00 PM,6:00 PM,4:00 PM,6:00 PM,4:00 PM,6:00 PM,7/30/2022,https://theshackmililani.com/menu/#Daily-Specials,,,,,,,,,,,,,,,,,,,,,,,,,,,,,,,,,,,,,,,,,,,,
85,Three Peaks Island Craft Beer & Gifts,270 Kuulei Rd Ste 101,Kailua,HI,96734,(808) 261-2337,https://threepeakshawaii.com/,21.39651248,-157.7404888,,,3:00 PM,6:00 PM,3:00 PM,6:00 PM,3:00 PM,6:00 PM,,,,,,,7/30/2022,https://threepeakshawaii.com/products-services/offers/,$6 Pints/Flights,,,,,,,,,,,,,,,,,,,,,,,,,,,,,,,,,,,,,,,,,,,
86,Puka's,4211 Wai'alae Ave Ste 2000,Honolulu,HI,96816,(808) 738-0820,https://www.wholefoodsmarket.com/stores/honolulu#store-eateries-and-bars,21.27739958,-157.7864782,3:00 PM,6:00 PM,3:00 PM,6:00 PM,3:00 PM,6:00 PM,3:00 PM,6:00 PM,3:00 PM,6:00 PM,,,,,7/16/2021,https://www.yelp.com/biz_photos/pukas-honolulu-2?select=yqSwU3u7pRTdiYJNapILRg,$2 Off Wine & Draft Beer,$1 Off Cocktails,$8 Cauliflower Nachos,$11 Beyond Burger,$10 Baja Fish Tacos,$9 Mary's Chicken Wings,$11 Pub Burger,,,,,,,,,,,,,,,,,,,,,,,,,,,,,,,,,,,,,
87,Gyu-Kaku Japanese BBQ - Windward Mall,46-056 Kamehameha Hwy F1,Kaneohe,HI,96744,(808) 744-2157,https://www.gyu-kaku.com/?_ga=2.7158961.269276306.1659237873-1690013091.1659237873,21.41954458,-157.8049025,11:00 AM,9:00 PM,11:00 AM,6:00 PM,11:00 AM,6:00 PM,11:00 AM,9:00 PM,11:00 AM,6:00 PM,11:00 AM,6:00 PM,11:00 AM,6:00 PM,4/1/2022,https://www.gyu-kaku.com/wp-content/uploads/2022/04/hifc_drink2204.pdf,$3-4.95 Beer,$11.95-12.95 Pitchers,$6.95 Signature Cocktails,$4.95 House Sake,$9.95 Gyu-Kaku Nigori Sake,$14.95 Mio Sparkling Sake,,,,,,,,,,,,,,,,,,,,,,,,,,,,,,,,,,,,,,
88,Underdogs Sports Bar & Grill,508 Waiakamilo St,Honolulu,HI,96817,(808) 888-2873,No Website Available,21.32332699,-157.8769918,2:00 PM,7:00 PM,2:00 PM,7:00 PM,2:00 PM,7:00 PM,2:00 PM,7:00 PM,2:00 PM,7:00 PM,2:00 PM,7:00 PM,2:00 PM,7:00 PM,4/21/2021,https://www.yelp.com/biz_photos/underdogs-sports-bar-and-grill-honolulu-2?select=7wb-d2jfaD0w-27_M5_QSA,,,,,,,,,,,,,,,,,,,,,,,,,,,,,,,,,,,,,,,,,,,,
89,Soju Bang,1649 Kalakaua Ave,Honolulu,HI,96826,(808) 447-1492,No Website Available,21.29330418,-157.837017,5:00 PM,8:00 PM,5:00 PM,8:00 PM,5:00 PM,8:00 PM,5:00 PM,8:00 PM,5:00 PM,8:00 PM,5:00 PM,8:00 PM,5:00 PM,8:00 PM,2/20/2022,https://www.yelp.com/biz_photos/soju-bang-honolulu?select=xZaXVeOXPIpH1-cNNrHOgw,$11 Pitcher Beer,$16 Rice Wine,$11 Bottle Soju,$15 Cocktail Soju,"$8 Mandoo, Edamame, Fries, Steamed Egg","$12 Shrimp Tempura, Kimchi Fried Rice, Fried Rice, Whole Fried Chicken, Oden Soup, Kimchi Pancake, Seafood Pancake",,,,,,,,,,,,,,,,,,,,,,,,,,,,,,,,,,,,,,
90,Soju Bang,1649 Kalakaua Ave,Honolulu,HI,96826,(808) 447-1492,No Website Available,21.29330418,-157.837017,10:00 PM,11:59 PM,10:00 PM,11:59 PM,10:00 PM,11:59 PM,10:00 PM,11:59 PM,,,,,10:00 PM,11:59 PM,2/20/2022,https://www.yelp.com/biz_photos/soju-bang-honolulu?select=xZaXVeOXPIpH1-cNNrHOgw,$5 Power Hour Shots,,,,,,,,,,,,,,,,,,,,,,,,,,,,,,,,,,,,,,,,,,,
91,Genius Lounge,346 Lewers St Fl- 3,Honolulu,HI,96815,(808) 626-5362,http://geniusloungehawaii.com/,21.28132107,-157.8289182,,,6:00 PM,7:00 PM,6:00 PM,7:00 PM,6:00 PM,7:00 PM,6:00 PM,7:00 PM,6:00 PM,7:00 PM,6:00 PM,7:00 PM,7/30/2022,http://geniusloungehawaii.com/,$4-6 Beer,$5 Wine,$8 Sake,$5 Well Drinks,$10-11 Mojito,$4 Non-Alcohol Special,$9 Mai Tai,$9 Blue Hawaii,$9 Pina Colada,$9 Lava Flow,$9 Margarita,$5 Edamame,$6 Curly Fries,"$7 Flavored Curly Fries (Galic, Cajun, Curry Onion)",$6 Kimchee Takowasa,$8 Karaage,"$12 Original Ahi Poke (Shoyu, Miso, Spicy)",$12 Deep Fried Calamari Spicy Mayo,$8 Green Salad,$13 Garlic Shrimp,$10 S Kalua Pork Nachos,$20 Garlic Ahi Steak,$12 Island Egg Omlette Rice,$14 100% Beef Loco Moco In A Hot Stone Bowl,$14 Yuzu Chicken,,,,,,,,,,,,,,,,,,,
92,Bar 35,35 N Hotel St,Honolulu,HI,96817,(808) 537-3535,https://www.bar35hawaii.com/,21.31143096,-157.8623931,,,,,,,4:00 PM,8:00 PM,4:00 PM,8:00 PM,6:00 PM,9:00 PM,,,7/30/2022,https://www.bar35hawaii.com/menu,$3 Off Draft Beer,"$4.50 Smirnoff Vodka, Bar35 Cocktails & Martinis",$3-7 Select 12-16oz Bottled & Canned Beers,,,,,,,,,,,,,,,,,,,,,,,,,,,,,,,,,,,,,,,,,
93,Side Street Inn,614 Kapahulu Ave Ste 100,Honolulu,HI,96815,(808) 739-3939,https://sidestreetinn.com/,21.27883404,-157.8141115,,,4:00 PM,6:00 PM,4:00 PM,6:00 PM,4:00 PM,6:00 PM,,,12:00 PM,4:00 PM,12:00 PM,4:00 PM,1/3/2022,https://sidestreetinn.com/kapahulu-menu/,20% Off Food & Drink,,,,,,,,,,,,,,,,,,,,,,,,,,,,,,,,,,,,,,,,,,,
94,Pitch Sports Bar,685 Auahi St,Honolulu,HI,96813,(808) 379-2550,https://www.pitchsportsbar.com/,21.29828892,-157.8608801,3:30 PM,7:00 PM,3:30 PM,7:00 PM,3:30 PM,7:00 PM,3:30 PM,7:00 PM,3:30 PM,7:00 PM,3:30 PM,7:00 PM,3:30 PM,7:00 PM,1/19/2020,https://www.musthavemenus.com/oo/places/pitchsportsbar,$6-7 Edamame,$6-7 French Fries,$8 Crispy Onion Rings,$10 Salt Vinegar Pork rinds,$10 Crispy Chicken Skins W/ Pitch Sauce,$12 Pitch Furikake Chicken,,,,,,,,,,,,,,,,,,,,,,,,,,,,,,,,,,,,,,
95,Kelley O'Neil's,311 Lewers St,Honolulu,HI,96815,(808) 926-1777,https://kelleyoneils.com/,21.2802368,-157.8293386,11:00 AM,8:00 PM,11:00 AM,8:00 PM,11:00 AM,8:00 PM,11:00 AM,8:00 PM,11:00 AM,8:00 PM,11:00 AM,8:00 PM,11:00 AM,8:00 PM,12/24/2021,https://kelleyoneils.com/?page_id=2,,,,,,,,,,,,,,,,,,,,,,,,,,,,,,,,,,,,,,,,,,,,
96,Chart House Waikiki,1765 Ala Moana Blvd,Honolulu,HI,96815,(808) 941-6669,https://charthousewaikiki.com/,21.28527527,-157.8397605,3:30 PM,5:30 PM,3:30 PM,5:30 PM,3:30 PM,5:30 PM,3:30 PM,5:30 PM,3:30 PM,5:30 PM,2:00 PM,5:30 PM,2:00 PM,5:30 PM,7/31/2022,https://cdn.shopify.com/s/files/1/0486/1067/2803/files/20220207_Chart_House_Pupu_Menu.pdf?v=1644964989,All Pupus 15% Off In The Bar,,,,,,,,,,,,,,,,,,,,,,,,,,,,,,,,,,,,,,,,,,,
97,Chart House Waikiki,1765 Ala Moana Blvd,Honolulu,HI,96815,(808) 941-6669,https://charthousewaikiki.com/,21.28527527,-157.8397605,9:15 PM,10:15 PM,9:15 PM,10:15 PM,9:15 PM,10:15 PM,9:15 PM,10:15 PM,9:15 PM,10:15 PM,9:15 PM,10:15 PM,9:15 PM,10:15 PM,7/31/2022,https://cdn.shopify.com/s/files/1/0486/1067/2803/files/20220207_Chart_House_Pupu_Menu.pdf?v=1644964989,All Pupus 15% Off In The Bar,,,,,,,,,,,,,,,,,,,,,,,,,,,,,,,,,,,,,,,,,,,
98,Harbor Pub & Pizza,1765 Ala Moana Blvd,Honolulu,HI,96815,(808) 941-0985,http://harborpubhawaii.com/index.html,21.28515725,-157.8396838,3:00 PM,7:00 PM,3:00 PM,7:00 PM,3:00 PM,7:00 PM,3:00 PM,7:00 PM,3:00 PM,7:00 PM,3:00 PM,7:00 PM,3:00 PM,7:00 PM,3/20/2022,https://www.yelp.com/biz_photos/harbor-pub-and-pizza-honolulu?select=wjPuPtyOoenkOibXMuNRNA,$1 Off Nachos & Quesadillas,,,,,,,,,,,,,,,,,,,,,,,,,,,,,,,,,,,,,,,,,,,
99,Shorefyre,2330 Kalakaua Ave,Honolulu,HI,96815,(808) 672-2097,https://www.shorefyre.com/,21.27580671,-157.8241659,8:00 AM,11:59 PM,4:00 PM,6:00 PM,4:00 PM,6:00 PM,4:00 PM,6:00 PM,4:00 PM,6:00 PM,4:00 PM,6:00 PM,4:00 PM,6:00 PM,5/30/2022,https://www.shorefyre.com/menu/,$7 Maui Brewing Big Swell IPA,$4 PBR,$4 Modelo Especial,$6 Kona Big Wave Golden Ale,$7 House Wine & Sparkling,$9 Coconut Mojito,$9 Hawaiian Mai Tai,$7 Spirits,$10.50 Mauna Kea Nachos,$30 Make It A Sampler - Pick Any 4 (Excluding Nachos),$10 Hawaiian 'Pipikaula' Style Beef Jerky,$7.50 Grilled Baby Romaine,$9.50 Fresh Ahi Tuna Tataki,$9.50 Coconut Shrimp (5),$9.50 Hibachi Steak,$7.50 Hibachi Chicken ,$7.50 Fried Brussel Sprouts,$7.50 Loaded Cheese Fries,$10.50 Tropical Shrimp Ceviche,,,,,,,,,,,,,,,,,,,,,,,,,
,Signature Prime Steak & Seafood,410 Atkinson Dr Fl 36,Honolulu,HI,96814,(808) 949-3636,https://www.signatureprimesteak.com/,21.29022084,-157.8393873,4:30 PM,6:30 PM,4:30 PM,6:30 PM,4:30 PM,6:30 PM,4:30 PM,6:30 PM,4:30 PM,6:30 PM,4:30 PM,6:30 PM,4:30 PM,6:30 PM,7/31/2022,https://www.signatureprimesteak.com/_files/ugd/b63ba1_9aa6a4412026406a9c70b483d1dc1ccd.pdf,"$5.95 Asahi Super Dry, Heineken, Heineken Light, Maui Brewing Co. Big Swell IPA, Maui Brewing Co. Bikini Blond Lager, Modelo Especial, Modelo Negra",$13-18.50 Red Wine By The Glass,$$12.50-17 White Wine & Sparkling Wine By The Glass,$9.95 Signature Cocktails,$11.50 Ahi Tartare,$12 Spicy Negi Toro,"$11 Seafood Trio (Oyster, Jumbo Shrimp, Ahi Sashimi)",$9.50 Steak Tartare,$10 Prime Truffle Meatballs,$9 New Zealand Smoked King Salmon Spread,$9 Avocado Crostini,$7.5 Steak Sliders,$9 Prime Steak Tips,$12 Ultimate Cheeseburger,$89.95 Signature Seafood Tower,$18.50 Oysters On The Half Shell (1/2 dozen),$18.50 Oysters Rockerfeller On The Half Shell (1/2 dozen),$18.50 Fried Oysters,$16.95 Fresh Sea Scallops,$18.50 Ahi Sashimi,$17.95 Ahi Poke,$15.95 Crispy Fried Calamari,$11.95 Fresh Fish Tacos,$11.95 Prime Steak Tacos,$13.95 Steak Salad,$8.95 Gignature Green Salad,$14.95 Beef Carpaccio,$16.95 Sizzling Steak On Hot Stone,$11.95 Fried Mushrooms,$10.95 Shishito Peppers,$11.95 Mac & Cheese (Add Lobster For $10),$13.95 Assorted Cheese Plate,$17.95 Burrata Cheese,$12.95 Goat Cheese Tartine,$9.50 Bruschetta,$11.95 Truffle Garlic Fries,$8.50 Potato Gratin,$8.95 Spicy Garlic Edamame,$14.50 Buffalo Jumbo Shrimp,$.14.50 Shrimp Stuffed Truffle Mushrooms,$9.50 Dessert Of The Day,$25 12 oz Prime Rib Eye (Add Truffle Mashed Potatoes Or Signature Green Salad For $5),$25 12 oz Prime New York (Add Truffle Mashed Potatoes Or Signature Green Salad For $5),$13.95 Signature Loco Moco
,Hana Koa Brewing,962 Kawaiahao St,Honolulu,HI,96814,(808) 591-2337,https://www.hanakoabrewing.com/,21.2972145,-157.8529696,11:00 AM,5:00 PM,11:00 AM,5:00 PM,11:00 AM,5:00 PM,11:00 AM,5:00 PM,11:00 AM,5:00 PM,11:00 AM,5:00 PM,11:00 AM,5:00 PM,2/23/2020,https://www.yelp.com/biz_photos/hana-koa-brewing-honolulu-3?select=IH2XozVRKDTqzKHlVcLa1A,"$3 10 oz Pours (#1 Breaktime Blonde, #2 Field Trip Pilsner)","$5 Pints (#1 Breaktime Blonde, #2 Field Trip Pilsner, #6 Random Dance Party, #8 Shift Steez)","$7 Pints (#4 Sandbar Saison, #5 Time Like These, #10 Kick Out The Gems, #13 Bronan The Barbarian (10 oz Pour))",$10 Growler (#6 Random Dance Party),$5 Flight,"$7 Wine (14 Hands Chardonnay, Rainstorm Rose, Byington Zinfandel)",$4 Chips & Roasted Salsa,$4 Crispy Fries & Creamy BBQ Sauce,$6 Sweet Pickled Onion Rings,$6 Eggplant Bruschetta,$6 Chicken Tenders,$8 Fresh Tomato & Caper Pasta,,,,,,,,,,,,,,,,,,,,,,,,,,,,,,,,
,Aloha Beer Kaka'ako,700 Queen St,Honolulu,HI,96813,(808) 544-1605,https://www.alohabeer.com/,21.30089299,-157.8568137,2:30 PM,5:30 PM,2:30 PM,5:30 PM,2:30 PM,5:30 PM,2:30 PM,5:30 PM,,,,,2:30 PM,5:30 PM,7/31/2022,https://www.alohabeer.com/kakaako-brewery/#happy-hour,$1 Off All Beer By The Pint,$5 Hummus & Chips,$5 Steak Fries,$5 Cauliflower Wings,$10 Brisket Fries,$10 Cheese Pizza,$10 Brisket Flauta,$10 Falafel Sandwich,,,,,,,,,,,,,,,,,,,,,,,,,,,,,,,,,,,,
,Aloha Beer Waikiki Beer Garden,2155 Kalakaua Ave,Honolulu,HI,96815,(808) 744-2011,https://www.alohabeer.com/,21.28039144,-157.8304784,2:30 PM,5:30 PM,2:30 PM,5:30 PM,2:30 PM,5:30 PM,2:30 PM,5:30 PM,,,,,2:30 PM,5:30 PM,7/31/2022,https://www.alohabeer.com/waikiki/,$10 Happy Hour Cheese Pizza,$15 Happy Hour Pepperoni Pizza,$7 Happy Hour Pretzel,$7.50 Happy Hour Fries,,,,,,,,,,,,,,,,,,,,,,,,,,,,,,,,,,,,,,,,
